start=new Date('2023-06-26T00:00:00.000Z').valueOf();
sats=[{"COUNTRY_CODE":"US","SITE":"AFWTR","ECCENTRICITY":"0.00009220","MEAN_MOTION":"15.08834180","EPHEMERIS_TYPE":"0","CENTER_NAME":"EARTH","REF_FRAME":"TEME","MEAN_MOTION_DOT":"-0.00001526","PERIOD":"95.438","OBJECT_TYPE":"PAYLOAD","TLE_LINE2":"2 50176  53.2175   6.3813 0000922  81.1367 278.9729 15.08834180 84299","APOAPSIS":"540.401","EPOCH":"2023-06-25T06:05:16.359648","MEAN_ELEMENT_THEORY":"SGP4","OBJECT_NAME":"STARLINK-3293","REV_AT_EPOCH":"8429","INCLINATION":"53.2175","BSTAR":"-0.00007780400000","CLASSIFICATION_TYPE":"U","RCS_SIZE":"LARGE","ELEMENT_SET_NO":"999","MEAN_MOTION_DDOT":"0.0000000000000","RA_OF_ASC_NODE":"6.3813","PERIAPSIS":"539.125","DECAY_DATE":null,"ARG_OF_PERICENTER":"81.1367","LAUNCH_DATE":"2021-12-18","MEAN_ANOMALY":"278.9729","OBJECT_ID":"2021-125W","FILE":"3942520","SEMIMAJOR_AXIS":"6917.898","TIME_SYSTEM":"UTC","GP_ID":"234546096","NORAD_CAT_ID":"50176","TLE_LINE1":"1 50176U 21125W   23176.25366157 -.00001526  00000-0 -77804-4 0  9990"},{"EPOCH":"2023-06-25T15:53:28.822560","MEAN_ELEMENT_THEORY":"SGP4","APOAPSIS":"540.479","OBJECT_TYPE":"PAYLOAD","TLE_LINE2":"2 50177  53.2186   4.5473 0001054  90.4761 269.6352 15.08838564 86956","REF_FRAME":"TEME","MEAN_MOTION_DOT":"-0.00000104","PERIOD":"95.438","CENTER_NAME":"EARTH","MEAN_MOTION":"15.08838564","EPHEMERIS_TYPE":"0","COUNTRY_CODE":"US","ECCENTRICITY":"0.00010540","SITE":"AFWTR","RCS_SIZE":"LARGE","CLASSIFICATION_TYPE":"U","INCLINATION":"53.2186","BSTAR":"0.00001155500000","OBJECT_NAME":"STARLINK-3282","REV_AT_EPOCH":"8695","MEAN_ANOMALY":"269.6352","LAUNCH_DATE":"2021-12-18","DECAY_DATE":null,"PERIAPSIS":"539.021","ARG_OF_PERICENTER":"90.4761","RA_OF_ASC_NODE":"4.5473","MEAN_MOTION_DDOT":"0.0000000000000","ELEMENT_SET_NO":"999","TLE_LINE1":"1 50177U 21125X   23176.66213915 -.00000104  00000-0  11555-4 0  9990","GP_ID":"234553229","NORAD_CAT_ID":"50177","TIME_SYSTEM":"UTC","SEMIMAJOR_AXIS":"6917.885","FILE":"3942789","OBJECT_ID":"2021-125X"},{"DECAY_DATE":null,"PERIAPSIS":"539.095","ARG_OF_PERICENTER":"85.5278","LAUNCH_DATE":"2021-12-18","MEAN_ANOMALY":"274.5824","ELEMENT_SET_NO":"999","MEAN_MOTION_DDOT":"0.0000000000000","RA_OF_ASC_NODE":"8.8130","NORAD_CAT_ID":"50178","GP_ID":"234532031","TLE_LINE1":"1 50178U 21125Y   23175.68052096  .00000887  00000-0  73788-4 0  9996","OBJECT_ID":"2021-125Y","FILE":"3941942","SEMIMAJOR_AXIS":"6917.897","TIME_SYSTEM":"UTC","OBJECT_TYPE":"PAYLOAD","TLE_LINE2":"2 50178  53.2184   8.8130 0000964  85.5278 274.5824 15.08834645 86808","APOAPSIS":"540.429","EPOCH":"2023-06-24T16:19:57.010944","MEAN_ELEMENT_THEORY":"SGP4","COUNTRY_CODE":"US","SITE":"AFWTR","ECCENTRICITY":"0.00009640","MEAN_MOTION":"15.08834645","EPHEMERIS_TYPE":"0","CENTER_NAME":"EARTH","REF_FRAME":"TEME","MEAN_MOTION_DOT":"0.00000887","PERIOD":"95.438","CLASSIFICATION_TYPE":"U","RCS_SIZE":"LARGE","OBJECT_NAME":"STARLINK-3284","REV_AT_EPOCH":"8680","INCLINATION":"53.2184","BSTAR":"0.00007378800000"},{"MEAN_ANOMALY":"279.1148","LAUNCH_DATE":"2021-12-18","ARG_OF_PERICENTER":"80.9941","PERIAPSIS":"539.130","DECAY_DATE":null,"RA_OF_ASC_NODE":"8.1466","MEAN_MOTION_DDOT":"0.0000000000000","ELEMENT_SET_NO":"999","TLE_LINE1":"1 50179U 21125Z   23175.85989390  .00000869  00000-0  72656-4 0  9995","NORAD_CAT_ID":"50179","GP_ID":"234534839","TIME_SYSTEM":"UTC","SEMIMAJOR_AXIS":"6917.860","FILE":"3942025","OBJECT_ID":"2021-125Z","MEAN_ELEMENT_THEORY":"SGP4","EPOCH":"2023-06-24T20:38:14.832960","APOAPSIS":"540.320","TLE_LINE2":"2 50179  53.2175   8.1466 0000860  80.9941 279.1148 15.08846590 86830","OBJECT_TYPE":"PAYLOAD","PERIOD":"95.437","MEAN_MOTION_DOT":"0.00000869","REF_FRAME":"TEME","CENTER_NAME":"EARTH","EPHEMERIS_TYPE":"0","MEAN_MOTION":"15.08846590","SITE":"AFWTR","ECCENTRICITY":"0.00008600","COUNTRY_CODE":"US","RCS_SIZE":"LARGE","CLASSIFICATION_TYPE":"U","INCLINATION":"53.2175","BSTAR":"0.00007265600000","REV_AT_EPOCH":"8683","OBJECT_NAME":"STARLINK-3283"},{"ELEMENT_SET_NO":"999","MEAN_MOTION_DDOT":"0.0000000000000","RA_OF_ASC_NODE":"4.3548","DECAY_DATE":null,"PERIAPSIS":"539.026","ARG_OF_PERICENTER":"82.0779","LAUNCH_DATE":"2021-12-18","MEAN_ANOMALY":"278.0332","OBJECT_ID":"2021-125AA","FILE":"3942789","SEMIMAJOR_AXIS":"6917.887","TIME_SYSTEM":"UTC","NORAD_CAT_ID":"50180","GP_ID":"234553546","TLE_LINE1":"1 50180U 21125AA  23176.70725985  .00001465  00000-0  11010-3 0  9999","COUNTRY_CODE":"US","SITE":"AFWTR","ECCENTRICITY":"0.00010490","MEAN_MOTION":"15.08837803","EPHEMERIS_TYPE":"0","CENTER_NAME":"EARTH","MEAN_MOTION_DOT":"0.00001465","REF_FRAME":"TEME","PERIOD":"95.438","TLE_LINE2":"2 50180  53.2187   4.3548 0001049  82.0779 278.0332 15.08837803 84362","OBJECT_TYPE":"PAYLOAD","APOAPSIS":"540.478","EPOCH":"2023-06-25T16:58:27.251040","MEAN_ELEMENT_THEORY":"SGP4","OBJECT_NAME":"STARLINK-3265","REV_AT_EPOCH":"8436","INCLINATION":"53.2187","BSTAR":"0.00011010000000","CLASSIFICATION_TYPE":"U","RCS_SIZE":"LARGE"},{"RCS_SIZE":"LARGE","CLASSIFICATION_TYPE":"U","INCLINATION":"53.2180","BSTAR":"0.00001586200000","OBJECT_NAME":"STARLINK-3285","REV_AT_EPOCH":"8689","EPOCH":"2023-06-25T05:40:09.250752","MEAN_ELEMENT_THEORY":"SGP4","APOAPSIS":"540.385","OBJECT_TYPE":"PAYLOAD","TLE_LINE2":"2 50181  53.2180   6.4726 0000931  98.2298 261.8800 15.08841551 86896","MEAN_MOTION_DOT":"-0.00000035","REF_FRAME":"TEME","PERIOD":"95.437","CENTER_NAME":"EARTH","MEAN_MOTION":"15.08841551","EPHEMERIS_TYPE":"0","COUNTRY_CODE":"US","ECCENTRICITY":"0.00009310","SITE":"AFWTR","TLE_LINE1":"1 50181U 21125AB  23176.23621818 -.00000035  00000-0  15862-4 0  9991","NORAD_CAT_ID":"50181","GP_ID":"234546597","TIME_SYSTEM":"UTC","SEMIMAJOR_AXIS":"6917.876","FILE":"3942520","OBJECT_ID":"2021-125AB","MEAN_ANOMALY":"261.8800","LAUNCH_DATE":"2021-12-18","DECAY_DATE":null,"PERIAPSIS":"539.097","ARG_OF_PERICENTER":"98.2298","RA_OF_ASC_NODE":"6.4726","MEAN_MOTION_DDOT":"0.0000000000000","ELEMENT_SET_NO":"999"},{"ELEMENT_SET_NO":"999","MEAN_MOTION_DDOT":"0.0000000000000","RA_OF_ASC_NODE":"4.3337","ARG_OF_PERICENTER":"100.3768","PERIAPSIS":"538.977","DECAY_DATE":null,"LAUNCH_DATE":"2021-12-18","MEAN_ANOMALY":"259.7353","OBJECT_ID":"2021-125AC","FILE":"3942789","SEMIMAJOR_AXIS":"6917.900","TIME_SYSTEM":"UTC","GP_ID":"234553547","NORAD_CAT_ID":"50182","TLE_LINE1":"1 50182U 21125AC  23176.67780124  .00000265  00000-0  34732-4 0  9997","ECCENTRICITY":"0.00011400","SITE":"AFWTR","COUNTRY_CODE":"US","EPHEMERIS_TYPE":"0","MEAN_MOTION":"15.08833527","CENTER_NAME":"EARTH","PERIOD":"95.438","MEAN_MOTION_DOT":"0.00000265","REF_FRAME":"TEME","OBJECT_TYPE":"PAYLOAD","TLE_LINE2":"2 50182  53.2179   4.3337 0001140 100.3768 259.7353 15.08833527 86961","APOAPSIS":"540.554","MEAN_ELEMENT_THEORY":"SGP4","EPOCH":"2023-06-25T16:16:02.027136","REV_AT_EPOCH":"8696","OBJECT_NAME":"STARLINK-3277","BSTAR":"0.00003473200000","INCLINATION":"53.2179","CLASSIFICATION_TYPE":"U","RCS_SIZE":"LARGE"},{"LAUNCH_DATE":"2021-12-18","DECAY_DATE":null,"PERIAPSIS":"539.074","ARG_OF_PERICENTER":"79.0417","MEAN_ANOMALY":"281.0685","MEAN_MOTION_DDOT":"0.0000000000000","ELEMENT_SET_NO":"999","RA_OF_ASC_NODE":"6.4799","GP_ID":"234546095","NORAD_CAT_ID":"50183","TLE_LINE1":"1 50183U 21125AD  23176.23157881  .00002034  00000-0  14581-3 0  9993","FILE":"3942520","OBJECT_ID":"2021-125AD","TIME_SYSTEM":"UTC","SEMIMAJOR_AXIS":"6917.882","APOAPSIS":"540.419","OBJECT_TYPE":"PAYLOAD","TLE_LINE2":"2 50183  53.2164   6.4799 0000972  79.0417 281.0685 15.08839527 84292","EPOCH":"2023-06-25T05:33:28.409184","MEAN_ELEMENT_THEORY":"SGP4","MEAN_MOTION":"15.08839527","EPHEMERIS_TYPE":"0","COUNTRY_CODE":"US","ECCENTRICITY":"0.00009720","SITE":"AFWTR","MEAN_MOTION_DOT":"0.00002034","REF_FRAME":"TEME","PERIOD":"95.438","CENTER_NAME":"EARTH","CLASSIFICATION_TYPE":"U","RCS_SIZE":"LARGE","OBJECT_NAME":"STARLINK-3281","REV_AT_EPOCH":"8429","BSTAR":"0.00014581000000","INCLINATION":"53.2164"},{"NORAD_CAT_ID":"50185","GP_ID":"234553231","TLE_LINE1":"1 50185U 21125AF  23176.69621028 -.00000378  00000-0 -56891-5 0  9997","FILE":"3942789","OBJECT_ID":"2021-125AF","TIME_SYSTEM":"UTC","SEMIMAJOR_AXIS":"6917.898","LAUNCH_DATE":"2021-12-18","ARG_OF_PERICENTER":"93.4069","PERIAPSIS":"538.917","DECAY_DATE":null,"MEAN_ANOMALY":"266.7063","MEAN_MOTION_DDOT":"0.0000000000000","ELEMENT_SET_NO":"999","RA_OF_ASC_NODE":"4.3305","CLASSIFICATION_TYPE":"U","RCS_SIZE":"LARGE","REV_AT_EPOCH":"8697","OBJECT_NAME":"STARLINK-3279","INCLINATION":"53.2189","BSTAR":"-0.00000568910000","APOAPSIS":"540.609","OBJECT_TYPE":"PAYLOAD","TLE_LINE2":"2 50185  53.2189   4.3305 0001223  93.4069 266.7063 15.08834153 86971","MEAN_ELEMENT_THEORY":"SGP4","EPOCH":"2023-06-25T16:42:32.568192","EPHEMERIS_TYPE":"0","MEAN_MOTION":"15.08834153","ECCENTRICITY":"0.00012230","SITE":"AFWTR","COUNTRY_CODE":"US","PERIOD":"95.438","REF_FRAME":"TEME","MEAN_MOTION_DOT":"-0.00000378","CENTER_NAME":"EARTH"},{"OBJECT_ID":"2021-125AG","FILE":"3942789","SEMIMAJOR_AXIS":"6917.885","TIME_SYSTEM":"UTC","GP_ID":"234553227","NORAD_CAT_ID":"50186","TLE_LINE1":"1 50186U 21125AG  23176.71641790  .00000449  00000-0  46270-4 0  9995","ELEMENT_SET_NO":"999","MEAN_MOTION_DDOT":"0.0000000000000","RA_OF_ASC_NODE":"14.3030","ARG_OF_PERICENTER":"87.1318","DECAY_DATE":null,"PERIAPSIS":"539.090","LAUNCH_DATE":"2021-12-18","MEAN_ANOMALY":"272.9783","REV_AT_EPOCH":"8682","OBJECT_NAME":"STARLINK-3274","INCLINATION":"53.2179","BSTAR":"0.00004627000000","CLASSIFICATION_TYPE":"U","RCS_SIZE":"LARGE","ECCENTRICITY":"0.00009540","SITE":"AFWTR","COUNTRY_CODE":"US","EPHEMERIS_TYPE":"0","MEAN_MOTION":"15.08838583","CENTER_NAME":"EARTH","PERIOD":"95.438","REF_FRAME":"TEME","MEAN_MOTION_DOT":"0.00000449","TLE_LINE2":"2 50186  53.2179  14.3030 0000954  87.1318 272.9783 15.08838583 86827","OBJECT_TYPE":"PAYLOAD","APOAPSIS":"540.410","MEAN_ELEMENT_THEORY":"SGP4","EPOCH":"2023-06-25T17:11:38.506560"}];
